KUIPER-00176            
1 65788U 25217AC  26013.78146539 -.00004352  00000+0 -54246-3 0  9995
2 65788  51.8974 285.9092 0000977  97.9174 262.1899 14.79909922 16742
KUIPER-00101            
1 65947U 25228A   26013.05068717  .00002625  00000+0  37319-3 0  9996
2 65947  51.8980 246.6243 0001138  85.2749 274.8344 14.79930582 14992
KUIPER-00113            
1 65948U 25228B   26014.00002315  .00020033  00000+0  26482-2 0  9996
2 65948  51.8971 237.4442 0000707 112.5115  59.7960 14.79945267  5376
KUIPER-00117            
1 65949U 25228C   26013.59359421  .00001797  00000+0  26461-3 0  9997
2 65949  51.8977 241.7430 0000921 112.2488 247.8572 14.79939647 15102
KUIPER-00121            
1 65950U 25228D   26014.00002315 -.00052312  00000+0 -72818-2 0  9990
2 65950  51.8986 234.8059 0005875  90.9297 133.3641 14.77565315  4555
KUIPER-00122            
1 65951U 25228E   26013.35196717  .00007940  00000+0  10697-2 0  9990
2 65951  51.8966 247.7829 0001630 111.6400 248.4737 14.79913242 15008
KUIPER-00123            
1 65952U 25228F   26013.38570550  .00002668  00000+0  37914-3 0  9999
2 65952  51.8979 247.6569 0000851 112.6762 247.4290 14.79902373 15005
KUIPER-00124            
1 65953U 25228G   26013.32620712  .00002069  00000+0  30016-3 0  9991
2 65953  51.8980 240.4060 0000838  99.5427 260.5630 14.79957306 15102
